{
  "type": "FeatureCollection",
  "features": [
    {
      "type": "Feature",
      "properties": {
        "norad_id": 30288,
        "name": "FENGYUN 1C DEB",
        "group": "fengyun-1c-debris",
        "lat": -22.968933482764903,
        "lon": 61.27214148336345,
        "alt_km": 775.197443918657,
        "timestamp": "2025-12-02T10:50:47.549336+00:00",
        "meta_object_name": "FENGYUN 1C DEB",
        "meta_object_id": "1999-025YZ",
        "meta_epoch": "2025-12-02T04:29:51.271872",
        "meta_mean_motion": 14.32420881,
        "meta_eccentricity": 0.0020157,
        "meta_inclination": 99.3964,
        "meta_ra_of_asc_node": 56.9612,
        "meta_arg_of_pericenter": 354.6598,
        "meta_mean_anomaly": 58.8222,
        "meta_ephemeris_type": 0,
        "meta_classification_type": "U",
        "meta_norad_cat_id": 30288,
        "meta_element_set_no": 999,
        "meta_rev_at_epoch": 97418,
        "meta_bstar": 0.0019747,
        "meta_mean_motion_dot": 5.308e-05,
        "meta_mean_motion_ddot": 0,
        "tle_line1": "1 30288U 99025YZ  25336.18739898  .00005308  00000+0  19747-2 0  9993",
        "tle_line2": "2 30288  99.3964  56.9612 0020157 354.6598  58.8222 14.32420881974186"
      },
      "geometry": {
        "type": "Point",
        "coordinates": [
          61.27214148336345,
          -22.968933482764903
        ]
      }
    },
    {
      "type": "Feature",
      "properties": {
        "norad_id": 30289,
        "name": "FENGYUN 1C DEB",
        "group": "fengyun-1c-debris",
        "lat": -3.0123651816879407,
        "lon": 73.22727773254314,
        "alt_km": 782.9625304470655,
        "timestamp": "2025-12-02T10:50:47.549346+00:00",
        "meta_object_name": "FENGYUN 1C DEB",
        "meta_object_id": "1999-025ZA",
        "meta_epoch": "2025-12-01T23:19:00.846912",
        "meta_mean_motion": 14.25666594,
        "meta_eccentricity": 0.0037078,
        "meta_inclination": 98.9278,
        "meta_ra_of_asc_node": 72.2643,
        "meta_arg_of_pericenter": 2.6183,
        "meta_mean_anomaly": 50.2518,
        "meta_ephemeris_type": 0,
        "meta_classification_type": "U",
        "meta_norad_cat_id": 30289,
        "meta_element_set_no": 999,
        "meta_rev_at_epoch": 96928,
        "meta_bstar": 0.0021371,
        "meta_mean_motion_dot": 5.06e-05,
        "meta_mean_motion_ddot": 0,
        "tle_line1": "1 30289U 99025ZA  25335.97153758  .00005060  00000+0  21371-2 0  9996",
        "tle_line2": "2 30289  98.9278  72.2643 0037078   2.6183  50.2518 14.25666594969289"
      },
      "geometry": {
        "type": "Point",
        "coordinates": [
          73.22727773254314,
          -3.0123651816879407
        ]
      }
    },
    {
      "type": "Feature",
      "properties": {
        "norad_id": 30290,
        "name": "FENGYUN 1C DEB",
        "group": "fengyun-1c-debris",
        "lat": 76.96996172750153,
        "lon": -31.84637949658138,
        "alt_km": 629.6963622370022,
        "timestamp": "2025-12-02T10:50:47.549356+00:00",
        "meta_object_name": "FENGYUN 1C DEB",
        "meta_object_id": "1999-025ZB",
        "meta_epoch": "2025-12-01T05:21:01.615968",
        "meta_mean_motion": 14.73688177,
        "meta_eccentricity": 0.001698,
        "meta_inclination": 102.6235,
        "meta_ra_of_asc_node": 70.6927,
        "meta_arg_of_pericenter": 90.2569,
        "meta_mean_anomaly": 325.8172,
        "meta_ephemeris_type": 0,
        "meta_classification_type": "U",
        "meta_norad_cat_id": 30290,
        "meta_element_set_no": 999,
        "meta_rev_at_epoch": 97709,
        "meta_bstar": 0.0066402,
        "meta_mean_motion_dot": 0.00043641,
        "meta_mean_motion_ddot": 0,
        "tle_line1": "1 30290U 99025ZB  25335.22293537  .00043641  00000+0  66402-2 0  9997",
        "tle_line2": "2 30290 102.6235  70.6927 0016980  90.2569 325.8172 14.73688177977093"
      },
      "geometry": {
        "type": "Point",
        "coordinates": [
          -31.84637949658138,
          76.96996172750153
        ]
      }
    },
    {
      "type": "Feature",
      "properties": {
        "norad_id": 30291,
        "name": "FENGYUN 1C DEB",
        "group": "fengyun-1c-debris",
        "lat": -5.230772334752902,
        "lon": 45.950853965348095,
        "alt_km": 768.9306881730263,
        "timestamp": "2025-12-02T10:50:47.549366+00:00",
        "meta_object_name": "FENGYUN 1C DEB",
        "meta_object_id": "1999-025ZC",
        "meta_epoch": "2025-12-01T16:07:28.800768",
        "meta_mean_motion": 14.54765439,
        "meta_eccentricity": 0.01126243,
        "meta_inclination": 97.2339,
        "meta_ra_of_asc_node": 225.9416,
        "meta_arg_of_pericenter": 53.413,
        "meta_mean_anomaly": 7.8648,
        "meta_ephemeris_type": 0,
        "meta_classification_type": "U",
        "meta_norad_cat_id": 30291,
        "meta_element_set_no": 999,
        "meta_rev_at_epoch": 97547,
        "meta_bstar": 0.0026416048,
        "meta_mean_motion_dot": 0.000123,
        "meta_mean_motion_ddot": 0,
        "tle_line1": "1 30291U 99025ZC  25335.67186112  .00012300  00000+0  26416-2 0  9996",
        "tle_line2": "2 30291  97.2339 225.9416 0112624  53.4130   7.8648 14.54765439975474"
      },
      "geometry": {
        "type": "Point",
        "coordinates": [
          45.950853965348095,
          -5.230772334752902
        ]
      }
    },
    {
      "type": "Feature",
      "properties": {
        "norad_id": 30293,
        "name": "FENGYUN 1C DEB",
        "group": "fengyun-1c-debris",
        "lat": -53.70907352664099,
        "lon": 179.2178596398304,
        "alt_km": 787.5333392078364,
        "timestamp": "2025-12-02T10:50:47.549376+00:00",
        "meta_object_name": "FENGYUN 1C DEB",
        "meta_object_id": "1999-025ZE",
        "meta_epoch": "2025-12-02T00:11:55.506048",
        "meta_mean_motion": 14.48831614,
        "meta_eccentricity": 0.0076539,
        "meta_inclination": 99.2546,
        "meta_ra_of_asc_node": 165.9031,
        "meta_arg_of_pericenter": 146.5188,
        "meta_mean_anomaly": 5.7894,
        "meta_ephemeris_type": 0,
        "meta_classification_type": "U",
        "meta_norad_cat_id": 30293,
        "meta_element_set_no": 999,
        "meta_rev_at_epoch": 98821,
        "meta_bstar": 0.0010317,
        "meta_mean_motion_dot": 3.993e-05,
        "meta_mean_motion_ddot": 0,
        "tle_line1": "1 30293U 99025ZE  25336.00828132  .00003993  00000+0  10317-2 0  9992",
        "tle_line2": "2 30293  99.2546 165.9031 0076539 146.5188   5.7894 14.48831614988213"
      },
      "geometry": {
        "type": "Point",
        "coordinates": [
          179.2178596398304,
          -53.70907352664099
        ]
      }
    },
    {
      "type": "Feature",
      "properties": {
        "norad_id": 30294,
        "name": "FENGYUN 1C DEB",
        "group": "fengyun-1c-debris",
        "lat": 25.18084385634154,
        "lon": -38.94304240555926,
        "alt_km": 673.1189425743878,
        "timestamp": "2025-12-02T10:50:47.549386+00:00",
        "meta_object_name": "FENGYUN 1C DEB",
        "meta_object_id": "1999-025ZF",
        "meta_epoch": "2025-12-01T23:17:47.013792",
        "meta_mean_motion": 14.34893068,
        "meta_eccentricity": 0.0198291,
        "meta_inclination": 98.3554,
        "meta_ra_of_asc_node": 324.5531,
        "meta_arg_of_pericenter": 341.8899,
        "meta_mean_anomaly": 77.5409,
        "meta_ephemeris_type": 0,
        "meta_classification_type": "U",
        "meta_norad_cat_id": 30294,
        "meta_element_set_no": 999,
        "meta_rev_at_epoch": 98382,
        "meta_bstar": 0.00054072,
        "meta_mean_motion_dot": 1.87e-05,
        "meta_mean_motion_ddot": 0,
        "tle_line1": "1 30294U 99025ZF  25335.97068303  .00001870  00000+0  54072-3 0  9993",
        "tle_line2": "2 30294  98.3554 324.5531 0198291 341.8899  77.5409 14.34893068983827"
      },
      "geometry": {
        "type": "Point",
        "coordinates": [
          -38.94304240555926,
          25.18084385634154
        ]
      }
    },
    {
      "type": "Feature",
      "properties": {
        "norad_id": 30295,
        "name": "FENGYUN 1C DEB",
        "group": "fengyun-1c-debris",
        "lat": -28.216454144191303,
        "lon": 3.82047714301174,
        "alt_km": 866.4089507947228,
        "timestamp": "2025-12-02T10:50:47.549396+00:00",
        "meta_object_name": "FENGYUN 1C DEB",
        "meta_object_id": "1999-025ZG",
        "meta_epoch": "2025-12-02T01:08:07.303200",
        "meta_mean_motion": 14.25030163,
        "meta_eccentricity": 0.0094464,
        "meta_inclination": 98.5092,
        "meta_ra_of_asc_node": 358.8206,
        "meta_arg_of_pericenter": 113.3667,
        "meta_mean_anomaly": 304.2457,
        "meta_ephemeris_type": 0,
        "meta_classification_type": "U",
        "meta_norad_cat_id": 30295,
        "meta_element_set_no": 999,
        "meta_rev_at_epoch": 98024,
        "meta_bstar": 0.00019067,
        "meta_mean_motion_dot": 4.26e-06,
        "meta_mean_motion_ddot": 0,
        "tle_line1": "1 30295U 99025ZG  25336.04730675  .00000426  00000+0  19067-3 0  9992",
        "tle_line2": "2 30295  98.5092 358.8206 0094464 113.3667 304.2457 14.25030163980243"
      },
      "geometry": {
        "type": "Point",
        "coordinates": [
          3.82047714301174,
          -28.216454144191303
        ]
      }
    }
  ]
}